STARLINK-34411          
1 65414U 25192L   26088.04805060  .01384819  11623-2  19612-2 0  9996
2 65414  53.1292 120.9198 0010400  12.8093 347.3202 16.05192214 32649
