{
  "norad_id": 65414,
  "name": "STARLINK-34411",
  "history": [
    {
      "epoch": "2026-03-29T01:09:11.571840",
      "apogee_km": 266.96895176614,
      "perigee_km": 253.16149114551263,
      "latitude_deg": 48.27122061450804,
      "longitude_deg": 102.01285759988241,
      "semi_major_axis_km": 6638.2022214558265,
      "eccentricity": 0.00104,
      "inclination_deg": 53.1292,
      "raan_deg": 120.9198,
      "arg_perigee_deg": 12.8093,
      "mean_anomaly_deg": 347.3202,
      "mean_motion_rev_day": 16.05192214
    }
  ]
}